#dP2023 11 26  0  0  0.00000000      96 __u+U IGS20 FIT  IAC
## 2290      0.00000000   900.00000000 60274 0.0000000000000
+  118   C06C07C08C09C10C11C12C13C14C16C19C20C21C22C23C24C25
+        C26C27C28C29C30C32C33C34C35C36C37C38C39C40C41C42C43
+        C44C45C46E02E03E04E05E07E08E09E10E11E12E13E15E19E21
+        E24E25E26E27E30E31E33E34E36G01G02G03G04G05G06G07G08
+        G09G10G11G12G13G14G15G16G17G18G19G20G21G22G23G24G25
+        G26G27G28G29G30G31G32J02J03J04R01R02R03R04R05R07R08
+        R09R11R12R13R14R15R16R17R18R19R20R21R22R24R25R26  0
++         9  9  7  9  9  7  9 11  6  8  5  7  6  7  6  7  7
++         7  5  5  8  5  6  6  7  7  7  7  6  9  9  6  8  8
++         6  7  7  5  6  6  6  5  6  6  7  4  5  6  5  7  6
++         6  4  6  5  5  7  7  5  5  5  5  5  6  7  6  5  4
++         5  7  5  5  5  5  6  7  5  5  5  4  5  5  6  4  5
++         5  5  5  6  4  5  5  6  7  9  7  5  6  7  6  6  7
++         7  6  7  7  7  5  7  6  7  6  7  6  7  7  7  6  0
%c M  cc GPS ccc cccc cccc cccc cccc ccccc ccccc ccccc ccccc
%c cc cc ccc ccc cccc cccc cccc cccc ccccc ccccc ccccc ccccc
%f  0.0000000  0.000000000  0.00000000000  0.000000000000000
%f  0.0000000  0.000000000  0.00000000000  0.000000000000000
%i    0    0    0    0      0      0      0      0         0
%i    0    0    0    0      0      0      0      0         0
/* INFORMATION & ANALYSIS CENTER (IAC)      ULTRA-RAPID DATA
/* S/V CLOCKS ARE ALIGNED TO GNSS TIME                      
/* G:C1WC2W R:C1PC2P E:C1XC5X C:C2IC6I J:C1CC2S             
/* PCV:IGS20_2287 OL/AL:FES2004  NONE     YN ORB:CoN CLK:CoN
*  2023 11 26 11 30  0.00000000
PC06 -14402.953338  39279.881803   3760.030605     41.242394
PC07  -2851.726888  31560.751280  27986.417495   -379.081026
PC08 -15087.148437  20902.812574 -33438.284732    217.776007
PC09  -7898.624183  38734.517209  14221.317450   -138.802977
PC10   5926.220346  34865.694658  23671.845338    -31.054828
PC11 -12181.476302  21300.462397  13386.643613    275.586959
PC12 -15741.729487   2150.763956  22989.771676    845.805485
PC13  -8176.532817  22610.975692 -34539.554660    387.867968
PC14 -11573.368970  10865.989205 -22939.284995    860.334142
PC16 -16104.348620  38771.877246   1063.099718   -194.964747
PC19   2223.248562 -16938.595046  22079.946984   -962.489893
PC20  17946.584220  -4345.644420  20934.371641     82.979129
PC21 -24174.048316 -12054.543147  -6962.823537   -969.903564
PC22 -15676.104142 -20523.207421  10542.978340   -210.146009
PC23   5353.552563  15464.016095  22602.642404   -814.256199
PC24 -25816.380896  10613.191145   -772.779192    633.939563
PC25 -13226.692024  18739.117730  15897.421681    264.351026
PC26 -22746.558614  -2208.424185 -16059.326866   -211.642811
PC27  14766.415627   7860.240008 -22349.204809    233.596231
PC28   6711.106540  23401.815832 -13634.815282    176.450143
PC29   5933.431294 -26759.073265  -5242.717394    206.486620
PC30  15034.080796 -12638.870453 -19833.037020     -9.117482
PC32  24277.617315  11937.434874   6865.011115   -537.590958
PC33  -2217.331927  16925.292874 -22080.802915   -943.299708
PC34 -14686.042358  14125.078753  19052.020831    311.758229
PC35  -7673.308193 -23109.166634  13656.168774    494.318464
PC36  14453.522873 -18308.435013 -15291.647714   -118.107936
PC37  22252.548222   3255.326810  16508.778133   -900.809652
PC38 -22613.040389  22189.667235 -27885.569797    120.178572
PC39 -16506.907403  38457.554776  -3907.913124     -5.819312
PC40  -6031.266340  27197.208805  31761.714178    -45.476132
PC41  15183.047943  20561.517555 -11157.747319   -871.757134
PC42 -18977.024587   3089.670494 -20181.287475   -491.844131
PC43  -6556.017546  26426.468741   6067.316178     49.841111
PC44 -15133.746088  -7560.425229  22189.073774    304.478497
PC45  -5934.036913 -15096.272101 -22714.403859    -49.623615
PC46  25506.299570 -11257.157544   -341.562024   -102.759937
PE02  24941.677310  -5985.295930 -14759.895755     81.625719
PE03  14134.499672 -10110.705118  23950.496175    -76.037822
PE04   -974.942974  25891.740643 -14309.391689   -266.261354
PE05  18992.984888  11392.113423  19632.427453   4694.627156
PE07 -12541.236857 -26595.686612  -3381.585077    -89.842081
PE08   1301.047408 -25589.087670  14809.207412   -182.897656
PE09  12464.756735  26654.567750   3252.922755   -241.393709
PE10  -4609.264167  23406.751473 -17529.343081   -581.773558
PE11   4931.005588  17650.416003 -23245.697865   3233.183351
PE12 -12435.682103  25014.902978  -9767.815929   -793.188868
PE13  -4257.805632 -18114.771978  23029.676476    -19.617819
PE15  12792.390232 -25012.245038   9335.717839    -71.549678
PE19 -15202.308649   7403.835127 -24294.477452  -1137.210933
PE21 -28742.945240  -6630.129385  -2513.335102   -565.973266
PE24  15396.110116  16236.824323  19350.523217   -452.719250
PE25  28642.042575   6871.489418   2883.910518     -2.859116
PE26 -19018.172761   -170.166913  22694.455808    292.112792
PE27 -15972.677218 -16029.554612 -19088.470672   -209.346355
PE30   6490.007276 -15827.056680 -24165.736921   -693.140670
PE31  -6084.797055  15878.965470  24234.794436    -10.657023
PE33 -22210.539618  16721.120205  10188.109696      3.087622
PE34  22076.189253 -17191.700485  -9633.482207    -80.049659
PE36  18554.331016    732.121894 -23042.507737   -149.342136
PG01 -13823.929805  21820.566022  -5714.092420    163.344046
PG02 -16388.461680  20670.859198   2401.079289   -523.840556
PG03  -9882.348019  12711.685937 -21245.857817     11.842100
PG04  -3276.228104  21946.393518 -14489.809056    223.330420
PG05  21851.877524  -6678.300490  13441.455411   -151.835954
PG06  15753.888005   2875.868745 -21139.781106    495.535165
PG07    998.230607  19400.549120  18376.902133      3.523448
PG08  -8946.829565  15036.610555  19780.501775   -153.958023
PG09   6221.798284  25288.759865  -5150.930896      8.473397
PG10 -21813.666332 -11062.373643  10950.343056    -62.901279
PG11  20717.806909  -7660.939562 -14687.058798   -476.206946
PG12  11960.197640 -11936.489711 -20754.479345   -451.088796
PG13  14222.878434  -4649.016667  21733.114557    599.358885
PG14  18824.453343  13410.243671  13264.449801    254.044104
PG15   7080.056345 -16416.535858  19087.080823    100.927489
PG16 -25193.161482   -223.668685   8786.900080   -415.270627
PG17  12708.978501  21393.889008  -8655.634082    722.830570
PG18  -1483.605734 -18267.184434  19168.434564   -489.892755
PG19  15371.921243  14532.340839 -16464.450524    404.178726
PG20  26399.098959  -1172.593989   1409.856778    399.694023
PG21 -17543.755928  18560.367053   5680.381922    143.244929
PG22  22826.280782  11315.005671   7402.944490     76.917013
PG23 -10769.578237 -14710.243464  19395.644892    105.439985
PG24  14992.090235 -21631.052419    303.588080   -380.073584
PG25  -2153.004580 -15852.064172 -21560.131690    479.028660
PG26 -26533.004335  -3329.325401  -1185.462760    213.910719
PG27 -15566.198319    597.589024  21303.944939    -75.144369
PG28 -15038.226117  -4919.131166 -21360.023295    -55.052956
PG29  -3524.270599 -25693.436263  -5522.162520   -610.109896
PG30  10253.902983  12257.071149  21315.595283   -464.142509
PG31 -19627.159558   3206.031040 -18003.729541   -226.081720
PG32 -15685.668720 -17977.979374 -11701.098932   -590.054897
PJ02 -28950.931124  22102.001584  26340.464515     -0.300525
PJ03 -31501.339372  26828.546360  13131.470335     -9.614011
PJ04 -23937.858395  21277.257864 -22335.384820     73.016924
PR01 -19225.687737 -15922.003019  -5240.769835     70.720824
PR02 -15790.972699  -3604.910213 -19692.800529    -22.320545
PR03  -3809.449702  11395.437896 -22450.684198     89.748131
PR04   9946.043219  19636.680884 -12847.557630    212.692434
PR05  18245.574101  17411.357866   3719.087872    122.864963
PR07   3053.680104 -12100.879767  22290.766195     70.000916
PR08 -10158.823272 -19685.000949  12738.302840    -73.415442
PR09  24826.248536  -5906.894305   1278.194398    155.350268
PR11    884.988630 -11361.470783 -22814.162367   -216.069837
PR12 -18326.557648  -4115.778052 -17246.624770     33.837084
PR13 -24864.509189   4479.105129  -3555.163176    -41.704344
PR14 -16928.275917  11699.945385  15070.610163     25.614183
PR15    629.580250  11180.623030  22933.805007     84.475310
PR16  18098.649676   4063.545352  17531.466908     20.988029
PR17 -10273.775621  22321.854926   6944.357484     38.275210
PR18  -2995.400722  23393.266371  -9638.762551    113.868893
PR19   4738.425279  14156.427505 -20678.102723   -256.044634
PR20  12545.532586  -7340.473007 -20955.679415   -104.161957
PR21  10188.347643 -22502.212076  -6295.234402    -56.336580
PR22   2930.989043 -23056.714325  10554.070524     95.368141
PR24 -12731.032230   8258.267270  20533.414573    -33.609665
PR25  11270.909420 -21821.932339  -6834.896430     -3.664841
PR26  -9815.194074 -19464.418649  13248.151067    -15.022552
EOF
